[{"OBJECT_NAME":"STARLINK-33962","OBJECT_ID":"2025-098AA","EPOCH":"2026-03-09T21:08:05.537760","MEAN_MOTION":14.98334072,"ECCENTRICITY":0.00029044,"INCLINATION":70.0006,"RA_OF_ASC_NODE":273.8662,"ARG_OF_PERICENTER":266.7176,"MEAN_ANOMALY":93.3651,"EPHEMERIS_TYPE":0,"CLASSIFICATION_TYPE":"U","NORAD_CAT_ID":63950,"ELEMENT_SET_NO":999,"REV_AT_EPOCH":4658,"BSTAR":0.00019731083,"MEAN_MOTION_DOT":2.262e-5,"MEAN_MOTION_DDOT":0},{"OBJECT_NAME":"PEGASUS DEB","OBJECT_ID":"1994-029AGC","EPOCH":"2026-03-05T08:27:18.984384","MEAN_MOTION":14.52218034,"ECCENTRICITY":0.0236757,"INCLINATION":81.9426,"RA_OF_ASC_NODE":296.4283,"ARG_OF_PERICENTER":114.8689,"MEAN_ANOMALY":247.7324,"EPHEMERIS_TYPE":0,"CLASSIFICATION_TYPE":"U","NORAD_CAT_ID":39929,"ELEMENT_SET_NO":999,"REV_AT_EPOCH":61587,"BSTAR":0.0010545,"MEAN_MOTION_DOT":6.215e-5,"MEAN_MOTION_DDOT":0}]
